ADDRESS,BLK_NO,BUILDING,LATITUDE,LONGITUDE,LONGTITUDE,POSTAL,ROAD_NAME,SEARCHVAL,X,Y
1 STRAITS BOULEVARD SINGAPORE CHINESE CULTURAL CENTRE SINGAPORE 018906,1,SINGAPORE CHINESE CULTURAL CENTRE,1.2758046353113,103.849615008325,103.849615008325,018906,STRAITS BOULEVARD,SINGAPORE CHINESE CULTURAL CENTRE,29813.6634912575,28697.5207557455
11A STRAITS BOULEVARD TEMPORARY SITE OFFICE SINGAPORE 018907,11A,TEMPORARY SITE OFFICE,1.27494969350594,103.85166524159,103.85166524159,018907,STRAITS BOULEVARD,TEMPORARY SITE OFFICE,30041.838898385897,28602.9872441757
5A MARINA GARDENS DRIVE SINGAPORE 018910,5A,NIL,1.2795867875087599,103.86895567364701,103.86895567364701,018910,MARINA GARDENS DRIVE,5A MARINA GARDENS DRIVE SINGAPORE 018910,31966.1207873868,29115.7533728331
2 CENTRAL BOULEVARD CENTRAL BOULEVARD TOWERS SINGAPORE 018916,2,CENTRAL BOULEVARD TOWERS,1.2797438901136202,103.851591286045,103.851591286045,018916,CENTRAL BOULEVARD,CENTRAL BOULEVARD TOWERS,30033.6044631479,29133.1046761069
21 PARK STREET DBS MARINA BAY MRT STATION SINGAPORE 018925,21,DBS MARINA BAY MRT STATION,1.2764273547671798,103.85459777675399,103.85459777675399,018925,PARK STREET,DBS MARINA BAY MRT STATION,30368.205612112797,28766.3819018323
21 PARK STREET MARINA BAY MRT STATION SINGAPORE 018925,21,MARINA BAY MRT STATION,1.27631114381587,103.854604975361,103.854604975361,018925,PARK STREET,MARINA BAY MRT STATION,30369.0068661775,28753.531901758197
21 PARK STREET MARINA BAY MRT STATION SINGAPORE 018925,21,MARINA BAY MRT STATION (NS27),1.2764092632251103,103.854595266332,103.854595266332,018925,PARK STREET,MARINA BAY MRT STATION (NS27),30367.9262386225,28764.381430253397
21 PARK STREET OCBC MARINA BAY MRT SINGAPORE 018925,21,OCBC MARINA BAY MRT,1.2764273547671798,103.85459777675399,103.85459777675399,018925,PARK STREET,OCBC MARINA BAY MRT,30368.205612112797,28766.3819018323
21 PARK STREET UOB MARINA BAY MRT STATION SINGAPORE 018925,21,UOB MARINA BAY MRT STATION,1.2764273547671798,103.85459777675399,103.85459777675399,018925,PARK STREET,UOB MARINA BAY MRT STATION,30368.205612112797,28766.3819018323
23 PARK STREET MARINA BAY MRT STATION SINGAPORE 018926,23,MARINA BAY MRT STATION (CE2),1.2762514642374498,103.855447156279,103.855447156279,018926,PARK STREET,MARINA BAY MRT STATION (CE2),30462.734976967797,28746.933632647597
20A PARK STREET TEMPORARY SITE OFFICE SINGAPORE 018927,20A,TEMPORARY SITE OFFICE,1.27524127939473,103.853658960578,103.853658960578,018927,PARK STREET,TEMPORARY SITE OFFICE,30263.7238617986,28635.2309705298
2 PARK STREET SINGAPORE 018928,2,NIL,1.27768139609174,103.850157273986,103.850157273986,018928,PARK STREET,2 PARK STREET SINGAPORE 018928,29874.0120090684,28905.043651687003
2 PARK STREET SHENTON WAY MRT STATION SINGAPORE 018928,2,SHENTON WAY MRT STATION (TE19),1.2777168283425,103.850367596067,103.850367596067,018928,PARK STREET,SHENTON WAY MRT STATION (TE19),29897.4191489164,28908.961721107404
25 PARK STREET SINGAPORE 018929,25,NIL,1.27519457380349,103.855173769376,103.855173769376,018929,PARK STREET,25 PARK STREET SINGAPORE 018929,30432.3101748275,28630.067888135098
25 PARK STREET MARINA BAY MRT STATION SINGAPORE 018929,25,MARINA BAY MRT STATION (TE20),1.27474173226843,103.85530916792801,103.85530916792801,018929,PARK STREET,MARINA BAY MRT STATION (TE20),30447.3793932004,28579.9951389208
51 MARINA SOUTH DRIVE SINGAPORE 018930,51,NIL,1.27535833153388,103.867027808386,103.867027808386,018930,MARINA SOUTH DRIVE,51 MARINA SOUTH DRIVE SINGAPORE 018930,31751.5710579529,28648.189602399198
5 STRAITS VIEW THE HEART SINGAPORE 018935,5,THE HEART,1.2775262887227101,103.85293534419,103.85293534419,018935,STRAITS VIEW,THE HEART,30183.189141358198,28887.894871493798
7 STRAITS VIEW MARINA ONE EAST TOWER SINGAPORE 018936,7,MARINA ONE EAST TOWER,1.2780324223039,103.852883150355,103.852883150355,018936,STRAITS VIEW,MARINA ONE EAST TOWER,30177.379958583,28943.860464191097
9 STRAITS VIEW MARINA ONE WEST TOWER SINGAPORE 018937,9,MARINA ONE WEST TOWER,1.27733681299187,103.852382415284,103.852382415284,018937,STRAITS VIEW,MARINA ONE WEST TOWER,30121.6527262582,28866.9431612883
11 MARINA BOULEVARD SINGAPORE 018940,11,NIL,1.28071923547797,103.85600467736,103.85600467736,018940,MARINA BOULEVARD,11 MARINA BOULEVARD SINGAPORE 018940,30524.778289991402,29240.9572506938
11 MARINA BOULEVARD MARINA BAY SINGAPORE SINGAPORE 018940,11,MARINA BAY SINGAPORE,1.2801145296328602,103.856286392833,103.856286392833,018940,MARINA BOULEVARD,MARINA BAY SINGAPORE,30556.131532264902,29174.0922781322
11 MARINA BOULEVARD RED DOT DESIGN MUSEUM SINGAPORE 018940,11,RED DOT DESIGN MUSEUM,1.2801654713349,103.856287670998,103.856287670998,018940,MARINA BOULEVARD,RED DOT DESIGN MUSEUM,30556.2737312531,29179.7251499034
71 MARINA COASTAL DRIVE MARINA SOUTH WHARVES SINGAPORE 018946,71,MARINA SOUTH WHARVES,1.2700449289946698,103.857323943633,103.857323943633,018946,MARINA COASTAL DRIVE,MARINA SOUTH WHARVES,30671.612910006203,28060.6489019431
61 MARINA COASTAL DRIVE DBS INTERNATIONAL CRUISE TERMINAL SINGAPORE 018947,61,DBS INTERNATIONAL CRUISE TERMINAL,1.2660223100044699,103.86052787680799,103.86052787680799,018947,MARINA COASTAL DRIVE,DBS INTERNATIONAL CRUISE TERMINAL,31028.1907944446,27615.852012699503
61 MARINA COASTAL DRIVE MARINA BAY CRUISE CENTRE SINGAPORE SINGAPORE 018947,61,MARINA BAY CRUISE CENTRE SINGAPORE,1.2661827510942,103.860462963288,103.860462963288,018947,MARINA COASTAL DRIVE,MARINA BAY CRUISE CENTRE SINGAPORE,31020.966220215,27633.5926833153
33 MARINA COASTAL DRIVE MARINA SOUTH PIER MRT STATION SINGAPORE 018948,33,MARINA SOUTH PIER MRT STATION (NS28),1.2710270361201002,103.86244751573601,103.86244751573601,018948,MARINA COASTAL DRIVE,MARINA SOUTH PIER MRT STATION (NS28),31241.826007018797,28169.251093417402
8 MARINA GARDENS DRIVE MARINA BARRAGE SINGAPORE 018951,8,MARINA BARRAGE,1.28088410880435,103.869885272808,103.869885272808,018951,MARINA GARDENS DRIVE,MARINA BARRAGE,32069.575635817797,29259.205939149502
18 MARINA GARDENS DRIVE SINGAPORE 018953,18,NIL,1.28175820937719,103.86158571589199,103.86158571589199,018953,MARINA GARDENS DRIVE,18 MARINA GARDENS DRIVE SINGAPORE 018953,31145.901288113597,29355.8477973938
18 MARINA GARDENS DRIVE DBS GARDENS BY THE BAY SINGAPORE 018953,18,DBS GARDENS BY THE BAY,1.28402150049556,103.864915787491,103.864915787491,018953,MARINA GARDENS DRIVE,DBS GARDENS BY THE BAY,31516.5079895211,29606.1152004767
18 MARINA GARDENS DRIVE EXHIBITION CENTRE SINGAPORE 018953,18,EXHIBITION CENTRE,1.28130189464479,103.861154922723,103.861154922723,018953,MARINA GARDENS DRIVE,EXHIBITION CENTRE,31097.9580731606,29305.390342105202
18 MARINA GARDENS DRIVE GARDENS BY THE BAY SINGAPORE 018953,18,GARDENS BY THE BAY,1.28156207358364,103.86361602725599,103.86361602725599,018953,MARINA GARDENS DRIVE,GARDENS BY THE BAY,31371.8586271275,29334.162693942002
18 MARINA GARDENS DRIVE GARDENS BY THE BAY (CLOUD FOREST) SINGAPORE 018953,18,GARDENS BY THE BAY (CLOUD FOREST),1.28387301464473,103.865993692974,103.865993692974,018953,MARINA GARDENS DRIVE,GARDENS BY THE BAY (CLOUD FOREST),31636.4701790353,29589.697906645
18 MARINA GARDENS DRIVE GARDENS BY THE BAY (FLOWER DOME) SINGAPORE 018953,18,GARDENS BY THE BAY (FLOWER DOME),1.2846204628011102,103.864735377434,103.864735377434,018953,MARINA GARDENS DRIVE,GARDENS BY THE BAY (FLOWER DOME),31496.429026358797,29672.345120472797
18 MARINA GARDENS DRIVE GARDENS BY THE BAY (GB HEADQUARTERS) SINGAPORE 018953,18,GARDENS BY THE BAY (GB HEADQUARTERS),1.28053324159214,103.864832057323,103.864832057323,018953,MARINA GARDENS DRIVE,GARDENS BY THE BAY (GB HEADQUARTERS),31507.1942585194,29220.4013851807
18 MARINA GARDENS DRIVE GARDENS BY THE BAY (SUN PAVILION) SINGAPORE 018953,18,GARDENS BY THE BAY (SUN PAVILION),1.28300901486792,103.866643180247,103.866643180247,018953,MARINA GARDENS DRIVE,GARDENS BY THE BAY (SUN PAVILION),31708.7539984537,29494.162191866002
18 MARINA GARDENS DRIVE GARDENS BY THE BAY (VISITOR CENTRE) SINGAPORE 018953,18,GARDENS BY THE BAY (VISITOR CENTRE),1.28203381265423,103.86562359095501,103.86562359095501,018953,MARINA GARDENS DRIVE,GARDENS BY THE BAY (VISITOR CENTRE),31595.283443943597,29386.3278991394
18 MARINA GARDENS DRIVE OCBC GARDENS BY THE BAY - THE CANOPY SINGAPORE 018953,18,OCBC GARDENS BY THE BAY - THE CANOPY,1.28402150049556,103.864915787491,103.864915787491,018953,MARINA GARDENS DRIVE,OCBC GARDENS BY THE BAY - THE CANOPY,31516.5079895211,29606.1152004767
18 MARINA GARDENS DRIVE SATAY BY THE BAY SINGAPORE 018953,18,SATAY BY THE BAY,1.28234302492402,103.86863681492399,103.86863681492399,018953,MARINA GARDENS DRIVE,SATAY BY THE BAY,31930.6301841512,29420.5234261565
8 BAYFRONT AVENUE MARINA BAY SANDS (CASINO) SINGAPORE 018955,8,MARINA BAY SANDS (CASINO),1.2843237295033,103.85956355313499,103.85956355313499,018955,BAYFRONT AVENUE,MARINA BAY SANDS (CASINO),30920.8481748458,29639.527392074502
10 BAYFRONT AVENUE MAYBANK OFFSITE@MARINABAYSANDS SINGAPORE 018956,10,MAYBANK OFFSITE@MARINABAYSANDS,1.2825745271967899,103.858562162091,103.858562162091,018956,BAYFRONT AVENUE,MAYBANK OFFSITE@MARINABAYSANDS,30809.4035472889,29446.1084987726
10 BAYFRONT AVENUE SANDS EXPO AND CONVENTION CENTRE SINGAPORE 018956,10,SANDS EXPO AND CONVENTION CENTRE,1.28233336079785,103.85830837868299,103.85830837868299,018956,BAYFRONT AVENUE,SANDS EXPO AND CONVENTION CENTRE,30781.159795518997,29419.4412852023
10 BAYFRONT AVENUE UOB MARINA BAY SANDS SINGAPORE 018956,10,UOB MARINA BAY SANDS,1.28240704314409,103.85839274952299,103.85839274952299,018956,BAYFRONT AVENUE,UOB MARINA BAY SANDS,30790.5494991597,29427.5887907911
11 BAYFRONT AVENUE BAYFRONT MRT STATION SINGAPORE 018957,11,BAYFRONT MRT STATION (DT16 / CE1),1.2818737887921001,103.859079764874,103.859079764874,018957,BAYFRONT AVENUE,BAYFRONT MRT STATION (DT16 / CE1),30867.009271220297,29368.6250332352
11 BAYFRONT AVENUE CITIBANK BAYFRONT CIRCLE LINE SMRT STATION SINGAPORE 018957,11,CITIBANK BAYFRONT CIRCLE LINE SMRT STATION,1.281797509965,103.859036968624,103.859036968624,018957,BAYFRONT AVENUE,CITIBANK BAYFRONT CIRCLE LINE SMRT STATION,30862.2464829106,29360.1904660892
11 BAYFRONT AVENUE UOB BAYFRONT MRT STATION SINGAPORE 018957,11,UOB BAYFRONT MRT STATION,1.2818737885183602,103.859079765146,103.859079765146,018957,BAYFRONT AVENUE,UOB BAYFRONT MRT STATION,30867.009301488302,29368.6250029672
2A BAYFRONT AVENUE THE SHOPPES AT MARINA BAY SANDS SINGAPORE 018958,2A,THE SHOPPES AT MARINA BAY SANDS,1.28423491318867,103.85898223619101,103.85898223619101,018958,BAYFRONT AVENUE,THE SHOPPES AT MARINA BAY SANDS,30856.1525086761,29629.7058853786
11A BAYFRONT AVENUE SINGAPORE 018959,11A,NIL,1.2793925564679498,103.858672684837,103.858672684837,018959,BAYFRONT AVENUE,11A BAYFRONT AVENUE SINGAPORE 018959,30821.7073010625,29094.2627109084
8 MARINA VIEW ASIA SQUARE TOWER 1 SINGAPORE 018960,8,ASIA SQUARE TOWER 1,1.2786922741422901,103.85135237789,103.85135237789,018960,MARINA VIEW,ASIA SQUARE TOWER 1,30007.0167333027,29016.8222259078
8 MARINA VIEW CONSULATE OF SAINT VINCENT AND THE GRENADINES SINGAPORE 018960,8,CONSULATE OF SAINT VINCENT AND THE GRENADINES,1.27884624016647,103.851163601606,103.851163601606,018960,MARINA VIEW,CONSULATE OF SAINT VINCENT AND THE GRENADINES,29986.0073323203,29033.8468468338
8 MARINA VIEW CONSULATE OF THE REPUBLIC OF SLOVENIA SINGAPORE 018960,8,CONSULATE OF THE REPUBLIC OF SLOVENIA,1.27874566853515,103.85127054436501,103.85127054436501,018960,MARINA VIEW,CONSULATE OF THE REPUBLIC OF SLOVENIA,29997.9092786098,29022.726238276802
8 MARINA VIEW DBS ASIA SQUARE SINGAPORE 018960,8,DBS ASIA SQUARE,1.2791142892786298,103.85125861726601,103.85125861726601,018960,MARINA VIEW,DBS ASIA SQUARE,29996.581603772003,29063.4864066727
12 MARINA VIEW ASIA SQUARE TOWER 2 SINGAPORE 018961,12,ASIA SQUARE TOWER 2,1.2783072963325401,103.85079518087099,103.85079518087099,018961,MARINA VIEW,ASIA SQUARE TOWER 2,29945.005474073798,28974.2529401239
12 MARINA VIEW THE WESTIN SINGAPORE SINGAPORE 018961,12,THE WESTIN SINGAPORE,1.2783630461488,103.850957393439,103.850957393439,018961,MARINA VIEW,THE WESTIN SINGAPORE,29963.0583892101,28980.417590100296
70 MARINA VIEW MARINA BAY FIRE STATION SINGAPORE 018962,70,MARINA BAY FIRE STATION,1.27483762778613,103.84902489336099,103.84902489336099,018962,MARINA VIEW,MARINA BAY FIRE STATION,29747.989019030698,28590.593655027402
70 MARINA VIEW MARINA BAY NEIGHBOURHOOD POLICE CENTRE SINGAPORE 018962,70,MARINA BAY NEIGHBOURHOOD POLICE CENTRE,1.2747354995470201,103.848994254645,103.848994254645,018962,MARINA VIEW,MARINA BAY NEIGHBOURHOOD POLICE CENTRE,29744.579239861097,28579.3008216415
3 CENTRAL BOULEVARD MARINA BAY SUITES SINGAPORE 018965,3,MARINA BAY SUITES,1.2803449799959399,103.852143277672,103.852143277672,018965,CENTRAL BOULEVARD,MARINA BAY SUITES,30095.0361812925,29199.5705350339
15 CENTRAL BOULEVARD DOWNTOWN MRT STATION SINGAPORE 018969,15,DOWNTOWN MRT STATION (DT17),1.27944619017901,103.852840444471,103.852840444471,018969,CENTRAL BOULEVARD,DOWNTOWN MRT STATION (DT17),30172.6259479886,29100.187577918197
1 BAYFRONT AVENUE CITIBANK MARINA BAY SANDS SINGAPORE 018971,1,CITIBANK MARINA BAY SANDS,1.2836777434366,103.860782419253,103.860782419253,018971,BAYFRONT AVENUE,CITIBANK MARINA BAY SANDS,31056.498653804,29568.099006412598
1 BAYFRONT AVENUE MARINA BAY SANDS SINGAPORE 018971,1,MARINA BAY SANDS,1.28345419690844,103.860809048956,103.860809048956,018971,BAYFRONT AVENUE,MARINA BAY SANDS,31059.4625855731,29543.380415365096
1 BAYFRONT AVENUE MARINA BAY SANDS SINGAPORE SINGAPORE 018971,1,MARINA BAY SANDS SINGAPORE,1.2835779578178002,103.860714426585,103.860714426585,018971,BAYFRONT AVENUE,MARINA BAY SANDS SINGAPORE,31048.9317486789,29557.0651458967
1 BAYFRONT AVENUE MARINA BAY SANDS SKYPARK SINGAPORE 018971,1,MARINA BAY SANDS SKYPARK,1.28342297945305,103.86079514091,103.86079514091,018971,BAYFRONT AVENUE,MARINA BAY SANDS SKYPARK,31057.91477169,29539.9285334311
1 BAYFRONT AVENUE OCBC MARINA BAY SANDS SINGAPORE 018971,1,OCBC MARINA BAY SANDS,1.2846620361321899,103.861005919301,103.861005919301,018971,BAYFRONT AVENUE,OCBC MARINA BAY SANDS,31081.3711878154,29676.9372881576
1 BAYFRONT AVENUE SANDS SKYPARK SINGAPORE 018971,1,SANDS SKYPARK,1.28445018649269,103.860956741623,103.860956741623,018971,BAYFRONT AVENUE,SANDS SKYPARK,31075.8983731437,29653.5119875204
1 BAYFRONT AVENUE TOWER 1 (MARINA BAY SANDS SINGAPORE) SINGAPORE 018971,1,TOWER 1 (MARINA BAY SANDS SINGAPORE),1.2825833668397801,103.860220223356,103.860220223356,018971,BAYFRONT AVENUE,TOWER 1 (MARINA BAY SANDS SINGAPORE),30993.9321586816,29447.0878193863
1 BAYFRONT AVENUE TOWER 2 (MARINA BAY SANDS SINGAPORE) SINGAPORE 018971,1,TOWER 2 (MARINA BAY SANDS SINGAPORE),1.2836034691148999,103.860720977246,103.860720977246,018971,BAYFRONT AVENUE,TOWER 2 (MARINA BAY SANDS SINGAPORE),31049.6607530667,29559.886061442998
1 BAYFRONT AVENUE TOWER 3 (MARINA BAY SANDS SINGAPORE) SINGAPORE 018971,1,TOWER 3 (MARINA BAY SANDS SINGAPORE),1.2846620364059498,103.86100591902901,103.86100591902901,018971,BAYFRONT AVENUE,TOWER 3 (MARINA BAY SANDS SINGAPORE),31081.3711575475,29676.9373184256
2 BAYFRONT AVENUE DBS DBS MARINA BAY SANDS BRANCH SINGAPORE 018972,2,DBS DBS MARINA BAY SANDS BRANCH,1.28385464447517,103.85867492865299,103.85867492865299,018972,BAYFRONT AVENUE,DBS DBS MARINA BAY SANDS BRANCH,30821.9521387825,29587.657390521803
2 BAYFRONT AVENUE DBS MARINA BAY SANDS BASEMENT 2 SINGAPORE 018972,2,DBS MARINA BAY SANDS BASEMENT 2,1.2835587208016201,103.858505742103,103.858505742103,018972,BAYFRONT AVENUE,DBS MARINA BAY SANDS BASEMENT 2,30803.1233946877,29554.935490561602
2 BAYFRONT AVENUE DBS MARINA BAY SANDS LEVEL 1 SINGAPORE 018972,2,DBS MARINA BAY SANDS LEVEL 1,1.2835587208016201,103.858505742103,103.858505742103,018972,BAYFRONT AVENUE,DBS MARINA BAY SANDS LEVEL 1,30803.1233946877,29554.935490561602
2 BAYFRONT AVENUE THE SHOPPES AT MARINA BAY SANDS SINGAPORE 018972,2,THE SHOPPES AT MARINA BAY SANDS,1.28367214668307,103.858811937302,103.858811937302,018972,BAYFRONT AVENUE,THE SHOPPES AT MARINA BAY SANDS,30837.2002712078,29567.4778771177
4 BAYFRONT AVENUE MARINA BAY SANDS (MASTERCARD THEATRES) SINGAPORE 018973,4,MARINA BAY SANDS (MASTERCARD THEATRES),1.28541970328943,103.860038087022,103.860038087022,018973,BAYFRONT AVENUE,MARINA BAY SANDS (MASTERCARD THEATRES),30973.6586026521,29760.7150717136
6 BAYFRONT AVENUE MARINA BAY SANDS (ARTSCIENCE MUSEUM) SINGAPORE 018974,6,MARINA BAY SANDS (ARTSCIENCE MUSEUM),1.28630559931953,103.85932796576901,103.85932796576901,018974,BAYFRONT AVENUE,MARINA BAY SANDS (ARTSCIENCE MUSEUM),30894.6270205509,29858.6720738504
21 MARINA WAY MARINA ONE RESIDENCES SINGAPORE 018978,21,MARINA ONE RESIDENCES,1.2767149850747501,103.85332693229799,103.85332693229799,018978,MARINA WAY,MARINA ONE RESIDENCES,30226.770467445298,28798.1854408998
23 MARINA WAY MARINA ONE RESIDENCES SINGAPORE 018979,23,MARINA ONE RESIDENCES,1.2772242561628502,103.853694940241,103.853694940241,018979,MARINA WAY,MARINA ONE RESIDENCES,30267.7263788935,28854.4983284436
18 MARINA BOULEVARD MARINA BAY RESIDENCES SINGAPORE 018980,18,MARINA BAY RESIDENCES,1.27962579891801,103.85498720377399,103.85498720377399,018980,MARINA BOULEVARD,MARINA BAY RESIDENCES,30411.542766375496,29120.049701245498
8 MARINA BOULEVARD CITIBANK MARINA BAY LINK MALL SINGAPORE 018981,8,CITIBANK MARINA BAY LINK MALL,1.2797942442163102,103.85454875124901,103.85454875124901,018981,MARINA BOULEVARD,CITIBANK MARINA BAY LINK MALL,30362.7463877648,29138.675105026003
8 MARINA BOULEVARD DBS MARINA BAY LINK MALL SINGAPORE 018981,8,DBS MARINA BAY LINK MALL,1.28019533269191,103.854207695749,103.854207695749,018981,MARINA BOULEVARD,DBS MARINA BAY LINK MALL,30324.789307071802,29183.0250865594
8 MARINA BOULEVARD MARINA BAY FINANCIAL CENTRE SINGAPORE 018981,8,MARINA BAY FINANCIAL CENTRE,1.2796512463082,103.853853179937,103.853853179937,018981,MARINA BOULEVARD,MARINA BAY FINANCIAL CENTRE,30285.3350508325,29122.8625049721
8 MARINA BOULEVARD MARINA BAY FINANCIAL CENTRE (TOWER 1) SINGAPORE 018981,8,MARINA BAY FINANCIAL CENTRE (TOWER 1),1.28017805394608,103.85419508112801,103.85419508112801,018981,MARINA BOULEVARD,MARINA BAY FINANCIAL CENTRE (TOWER 1),30323.3854174512,29181.114480623997
8 MARINA BOULEVARD OCBC MARINA BAY FINANCIAL CENTRE BRANCH SINGAPORE 018981,8,OCBC MARINA BAY FINANCIAL CENTRE BRANCH,1.27943947904258,103.85378657896601,103.85378657896601,018981,MARINA BOULEVARD,OCBC MARINA BAY FINANCIAL CENTRE BRANCH,30277.923087515897,29099.446314996097
8 MARINA BOULEVARD OCBC MARINA BAY LINK MALL SINGAPORE 018981,8,OCBC MARINA BAY LINK MALL,1.2797942442163102,103.85454875124901,103.85454875124901,018981,MARINA BOULEVARD,OCBC MARINA BAY LINK MALL,30362.7463877648,29138.675105026003
8 MARINA BOULEVARD STANDARD CHARTERED BANK MARINA BAY SINGAPORE 018981,8,STANDARD CHARTERED BANK MARINA BAY,1.27958121307614,103.85375192712401,103.85375192712401,018981,MARINA BOULEVARD,STANDARD CHARTERED BANK MARINA BAY,30274.066492370297,29115.1185018737
8 MARINA BOULEVARD UOB MARINA BAY FINANCIAL CENTRE BRANCH SINGAPORE 018981,8,UOB MARINA BAY FINANCIAL CENTRE BRANCH,1.27943947904258,103.85378657896601,103.85378657896601,018981,MARINA BOULEVARD,UOB MARINA BAY FINANCIAL CENTRE BRANCH,30277.923087515897,29099.446314996097
12 MARINA BOULEVARD CONSULATE OF THE REPUBLIC OF ICELAND SINGAPORE 018982,12,CONSULATE OF THE REPUBLIC OF ICELAND,1.2791056782819599,103.854297424273,103.854297424273,018982,MARINA BOULEVARD,CONSULATE OF THE REPUBLIC OF ICELAND,30334.7763493713,29062.5368092209
12 MARINA BOULEVARD DBS AUDITORIUM SINGAPORE 018982,12,DBS AUDITORIUM,1.27901700601654,103.85446480836599,103.85446480836599,018982,MARINA BOULEVARD,DBS AUDITORIUM,30353.404931290097,29052.732040718198
12 MARINA BOULEVARD DBS MBFC BRANCH SINGAPORE 018982,12,DBS MBFC BRANCH,1.27914768799409,103.85447460767,103.85447460767,018982,MARINA BOULEVARD,DBS MBFC BRANCH,30354.4953959398,29067.182188021
12 MARINA BOULEVARD MARINA BAY FINANCIAL CENTRE SINGAPORE 018982,12,MARINA BAY FINANCIAL CENTRE,1.27910976860465,103.854405527449,103.854405527449,018982,MARINA BOULEVARD,MARINA BAY FINANCIAL CENTRE,30346.807358343198,29062.989194504902
12 MARINA BOULEVARD MARINA BAY FINANCIAL CENTRE (TOWER 3) SINGAPORE 018982,12,MARINA BAY FINANCIAL CENTRE (TOWER 3),1.2791249384577,103.854457595537,103.854457595537,018982,MARINA BOULEVARD,MARINA BAY FINANCIAL CENTRE (TOWER 3),30352.602103290097,29064.666646162
10 MARINA BOULEVARD MARINA BAY FINANCIAL CENTRE SINGAPORE 018983,10,MARINA BAY FINANCIAL CENTRE,1.27946938576652,103.85374955330799,103.85374955330799,018983,MARINA BOULEVARD,MARINA BAY FINANCIAL CENTRE,30273.802404212798,29102.753213290096
10 MARINA BOULEVARD MARINA BAY FINANCIAL CENTRE (TOWER 2) SINGAPORE 018983,10,MARINA BAY FINANCIAL CENTRE (TOWER 2),1.2794402088133,103.853786765543,103.853786765543,018983,MARINA BOULEVARD,MARINA BAY FINANCIAL CENTRE (TOWER 2),30277.9438513527,29099.5270094406
8A MARINA BOULEVARD GROUND PLAZA (MARINA BAY LINK MALL) SINGAPORE 018984,8A,GROUND PLAZA (MARINA BAY LINK MALL),1.2797249150341299,103.854548750407,103.854548750407,018984,MARINA BOULEVARD,GROUND PLAZA (MARINA BAY LINK MALL),30362.746357496802,29131.009041985497
8A MARINA BOULEVARD MARINA BAY LINK MALL SINGAPORE 018984,8A,MARINA BAY LINK MALL,1.2804679433167399,103.85347014858,103.85347014858,018984,MARINA BOULEVARD,MARINA BAY LINK MALL,30242.7060463168,29213.1683056485
6 MARINA BOULEVARD THE SAIL @ MARINA BAY SINGAPORE 018985,6,THE SAIL @ MARINA BAY,1.2807694350422199,103.852658562152,103.852658562152,018985,MARINA BOULEVARD,THE SAIL @ MARINA BAY,30152.382811282798,29246.505008895
4 MARINA BOULEVARD THE SAIL @ MARINA BAY SINGAPORE 018986,4,THE SAIL @ MARINA BAY,1.2807694350422199,103.852658562152,103.852658562152,018986,MARINA BOULEVARD,THE SAIL @ MARINA BAY,30152.382811282798,29246.505008895
2 MARINA BOULEVARD THE SAIL @ MARINA BAY SINGAPORE 018987,2,THE SAIL @ MARINA BAY,1.2807694347684901,103.852658562152,103.852658562152,018987,MARINA BOULEVARD,THE SAIL @ MARINA BAY,30152.382811282798,29246.504978627003
31 MARINA COASTAL DRIVE MARINA SOUTH PIER SINGAPORE 018988,31,MARINA SOUTH PIER,1.2702907776761498,103.86314907360399,103.86314907360399,018988,MARINA COASTAL DRIVE,MARINA SOUTH PIER,31319.904934599996,28087.8403267246
31 MARINA COASTAL DRIVE MARINA SOUTH PIER (VISIT WWW.SLA.GOV.SG/ISLANDS FOR MORE INFORMATION ON FERRY SERVICES) SINGAPORE 018988,31,MARINA SOUTH PIER (VISIT WWW.SLA.GOV.SG/ISLANDS FOR MORE INFORMATION ON FERRY SERVICES),1.27086122920425,103.86325533708599,103.86325533708599,018988,MARINA COASTAL DRIVE,MARINA SOUTH PIER (VISIT WWW.SLA.GOV.SG/ISLANDS FOR MORE INFORMATION ON FERRY SERVICES),31331.7305147666,28150.9180480912
31 MARINA COASTAL DRIVE MARINA SOUTH PIER CHECKPOINT SINGAPORE 018988,31,MARINA SOUTH PIER CHECKPOINT,1.2708722121721299,103.86332757254699,103.86332757254699,018988,MARINA COASTAL DRIVE,MARINA SOUTH PIER CHECKPOINT,31339.7697517779,28152.132581206002
1 MARINA BOULEVARD ONE MARINA BOULEVARD SINGAPORE 018989,1,ONE MARINA BOULEVARD,1.2822533175875102,103.852592102553,103.852592102553,018989,MARINA BOULEVARD,ONE MARINA BOULEVARD,30144.985164722402,29410.5850245077
1 MARINA BOULEVARD ONG TENG CHEONG INSTITUTE OF LABOUR STUDIES SINGAPORE 018989,1,ONG TENG CHEONG INSTITUTE OF LABOUR STUDIES,1.2822876688749099,103.852774136661,103.852774136661,018989,MARINA BOULEVARD,ONG TENG CHEONG INSTITUTE OF LABOUR STUDIES,30165.2440407798,29414.3835656606
1 MARINA BOULEVARD SINGAPORE LABOUR FOUNDATION (SLF) SINGAPORE 018989,1,SINGAPORE LABOUR FOUNDATION (SLF),1.28239072896317,103.85250108678801,103.85250108678801,018989,MARINA BOULEVARD,SINGAPORE LABOUR FOUNDATION (SLF),30134.8557418277,29425.7791891173
1 MARINA BOULEVARD SKILLSFUTURE SINGAPORE (SSG) SINGAPORE 018989,1,SKILLSFUTURE SINGAPORE (SSG),1.2823240695244198,103.85253409469401,103.85253409469401,018989,MARINA BOULEVARD,SKILLSFUTURE SINGAPORE (SSG),30138.5293064751,29418.4083599914
1 MARINA BOULEVARD WORKFORCE SINGAPORE (WSG) SINGAPORE 018989,1,WORKFORCE SINGAPORE (WSG),1.28228765780448,103.852428733143,103.852428733143,018989,MARINA BOULEVARD,WORKFORCE SINGAPORE (WSG),30126.8034593146,29414.3820522595
11 MARINA MALL SINGAPORE 019396,11,NIL,1.2805697786755401,103.868846533132,103.868846533132,019396,MARINA MALL,11 MARINA MALL SINGAPORE 019396,31953.972822926,29224.447306564103
11 MARINA MALL GARDENS BY THE BAY MRT STATION SINGAPORE 019396,11,GARDENS BY THE BAY MRT STATION (TE22),1.27848725876304,103.867454664421,103.867454664421,019396,MARINA MALL,GARDENS BY THE BAY MRT STATION (TE22),31799.0721787354,28994.1708776131
61 MARINA MALL SINGAPORE 019397,61,NIL,1.2753798884361103,103.8628034276,103.8628034276,019397,MARINA MALL,61 MARINA MALL SINGAPORE 019397,31281.430755673,28650.567485468502
61 MARINA MALL MARINA SOUTH MRT STATION SINGAPORE 019397,61,MARINA SOUTH MRT STATION (TE21),1.2745547591913897,103.863574321728,103.863574321728,019397,MARINA MALL,MARINA SOUTH MRT STATION (TE21),31367.226263559398,28559.3299454488
2 MARINA GREEN SINGAPORE 019800,2,NIL,1.2766420037228798,103.864822282928,103.864822282928,019800,MARINA GREEN,2 MARINA GREEN SINGAPORE 019800,31506.111724081402,28790.128345778197
1 MARINA EAST DRIVE SINGAPORE 029996,1,NIL,1.29396588639808,103.876995114944,103.876995114944,029996,MARINA EAST DRIVE,1 MARINA EAST DRIVE SINGAPORE 029996,32860.8186257025,30705.734159391402
201 MARINA EAST DRIVE SINGAPORE 029997,201,NIL,1.2835489039816599,103.877909588821,103.877909588821,029997,MARINA EAST DRIVE,201 MARINA EAST DRIVE SINGAPORE 029997,32962.611792095,29553.8794406094
20 REPUBLIC AVENUE DBS NICOLL HIGHWAY MRT STATION SINGAPORE 038970,20,DBS NICOLL HIGHWAY MRT STATION,1.29956843029408,103.863977721184,103.863977721184,038970,REPUBLIC AVENUE,DBS NICOLL HIGHWAY MRT STATION,31412.0882280376,31325.2134546582
20 REPUBLIC AVENUE NICOLL HIGHWAY MRT STATION SINGAPORE 038970,20,NICOLL HIGHWAY MRT STATION (CC5),1.29976683498023,103.863637018754,103.863637018754,038970,REPUBLIC AVENUE,NICOLL HIGHWAY MRT STATION (CC5),31374.170828671202,31347.1515681837
20 REPUBLIC AVENUE OCBC NICOLL HIGHWAY MRT SINGAPORE 038970,20,OCBC NICOLL HIGHWAY MRT,1.29958736473479,103.86404011518101,103.86404011518101,038970,REPUBLIC AVENUE,OCBC NICOLL HIGHWAY MRT,31419.0320969867,31327.3072121628
20 REPUBLIC AVENUE UOB NICOLL HIGHWAY CCL STATION SINGAPORE 038970,20,UOB NICOLL HIGHWAY CCL STATION,1.29958736473479,103.86404011518101,103.86404011518101,038970,REPUBLIC AVENUE,UOB NICOLL HIGHWAY CCL STATION,31419.0320969867,31327.3072121628
1 REPUBLIC BOULEVARD THE PIT BUILDING SINGAPORE 038975,1,THE PIT BUILDING,1.2915723604716798,103.86381071217899,103.86381071217899,038975,REPUBLIC BOULEVARD,THE PIT BUILDING,31393.5122518744,30441.048935212202
21 ESPLANADE DRIVE SINGAPORE 038980,21,NIL,1.2864871590030902,103.854568777144,103.854568777144,038980,ESPLANADE DRIVE,21 ESPLANADE DRIVE SINGAPORE 038980,30364.9689658098,29878.7431068011
21 ESPLANADE DRIVE MERLION PARK (ONE FULLERTON) SINGAPORE 038980,21,MERLION PARK (ONE FULLERTON),1.28681077410497,103.854534936141,103.854534936141,038980,ESPLANADE DRIVE,MERLION PARK (ONE FULLERTON),30361.2024481837,29914.526764655497
1 ESPLANADE DRIVE ESPLANADE - THEATRES ON THE BAY SINGAPORE 038981,1,ESPLANADE - THEATRES ON THE BAY,1.28986232671324,103.855288020091,103.855288020091,038981,ESPLANADE DRIVE,ESPLANADE - THEATRES ON THE BAY,30445.0114682987,30251.9524310566
1 ESPLANADE DRIVE ESPLANADE THEATRE SINGAPORE 038981,1,ESPLANADE THEATRE,1.2898600000699398,103.855277979198,103.855277979198,038981,ESPLANADE DRIVE,ESPLANADE THEATRE,30443.8940046076,30251.6951531935
1 ESPLANADE DRIVE OCBC ESPLANADE MALL SINGAPORE 038981,1,OCBC ESPLANADE MALL,1.2903658655008001,103.8547977273,103.8547977273,038981,ESPLANADE DRIVE,OCBC ESPLANADE MALL,30390.4455882404,30307.630689782996
2 TEMASEK BOULEVARD CONRAD CENTENNIAL SINGAPORE SINGAPORE 038982,2,CONRAD CENTENNIAL SINGAPORE,1.29352504746137,103.85877474855499,103.85877474855499,038982,TEMASEK BOULEVARD,CONRAD CENTENNIAL SINGAPORE,30833.0505911764,30656.960844984304
3 TEMASEK BOULEVARD CITIBANK SUNTEC CITY MALL SINGAPORE 038983,3,CITIBANK SUNTEC CITY MALL,1.2957115246888602,103.858552585838,103.858552585838,038983,TEMASEK BOULEVARD,CITIBANK SUNTEC CITY MALL,30808.3234040225,30898.7299970854
3 TEMASEK BOULEVARD DBS SUNTEC CITY BASEMENT SINGAPORE 038983,3,DBS SUNTEC CITY BASEMENT,1.2948850317824299,103.85771709915001,103.85771709915001,038983,TEMASEK BOULEVARD,DBS SUNTEC CITY BASEMENT,30715.341943853502,30807.3397550881
3 TEMASEK BOULEVARD DBS SUNTEC CITY BRANCH SINGAPORE 038983,3,DBS SUNTEC CITY BRANCH,1.29484614894922,103.857705211747,103.857705211747,038983,TEMASEK BOULEVARD,DBS SUNTEC CITY BRANCH,30714.0190210892,30803.0402788054
3 TEMASEK BOULEVARD HSBC SUNTEC CITY BRANCH SINGAPORE 038983,3,HSBC SUNTEC CITY BRANCH,1.29492391490318,103.857699268838,103.857699268838,038983,TEMASEK BOULEVARD,HSBC SUNTEC CITY BRANCH,30713.357544573,30811.639231370802
3 TEMASEK BOULEVARD JOSIAH MONTESSORI : CITY CHILDCARE CENTRE SINGAPORE 038983,3,JOSIAH MONTESSORI : CITY CHILDCARE CENTRE,1.29501962804527,103.85776167646699,103.85776167646699,038983,TEMASEK BOULEVARD,JOSIAH MONTESSORI : CITY CHILDCARE CENTRE,30720.302866385297,30822.2227648254
3 TEMASEK BOULEVARD OCBC SUNTECT CITY SINGAPORE 038983,3,OCBC SUNTECT CITY,1.2948790500243101,103.85767549434601,103.85767549434601,038983,TEMASEK BOULEVARD,OCBC SUNTECT CITY,30710.711699044303,30806.6782785729
3 TEMASEK BOULEVARD SUNTEC CITY MALL SINGAPORE 038983,3,SUNTEC CITY MALL,1.2959699274965502,103.858745530061,103.858745530061,038983,TEMASEK BOULEVARD,SUNTEC CITY MALL,30829.796117031,30927.3030645177
3 TEMASEK BOULEVARD SUNTEC CITY POST OFFICE SINGAPORE 038983,3,SUNTEC CITY POST OFFICE,1.29503246087732,103.85985020396299,103.85985020396299,038983,TEMASEK BOULEVARD,SUNTEC CITY POST OFFICE,30952.737705254,30823.644088804704
3 TEMASEK BOULEVARD UOB SUNTEC CITY BRANCH SINGAPORE 038983,3,UOB SUNTEC CITY BRANCH,1.29432416524256,103.860371993025,103.860371993025,038983,TEMASEK BOULEVARD,UOB SUNTEC CITY BRANCH,31010.8091021143,30745.325015042003
5 TEMASEK BOULEVARD SUNTEC TOWER FIVE SINGAPORE 038985,5,SUNTEC TOWER FIVE,1.2944990913886698,103.857986969685,103.857986969685,038985,TEMASEK BOULEVARD,SUNTEC TOWER FIVE,30745.3765916843,30764.6647432372
6 TEMASEK BOULEVARD SUNTEC TOWER FOUR SINGAPORE 038986,6,SUNTEC TOWER FOUR,1.29465741053983,103.85972287010901,103.85972287010901,038986,TEMASEK BOULEVARD,SUNTEC TOWER FOUR,30938.5669919774,30782.172804398502
6 TEMASEK BOULEVARD UOB SUNTEC CITY MALL SINGAPORE 038986,6,UOB SUNTEC CITY MALL,1.29464674534009,103.85972436175899,103.85972436175899,038986,TEMASEK BOULEVARD,UOB SUNTEC CITY MALL,30938.733011867902,30780.993503216698
7 TEMASEK BOULEVARD EMBASSY OF THE KINGDOM OF SPAIN SINGAPORE 038987,7,EMBASSY OF THE KINGDOM OF SPAIN,1.2954254040234299,103.858378559681,103.858378559681,038987,TEMASEK BOULEVARD,EMBASSY OF THE KINGDOM OF SPAIN,30788.9561319612,30867.0920541566
7 TEMASEK BOULEVARD SUNTEC TOWER ONE SINGAPORE 038987,7,SUNTEC TOWER ONE,1.2954254040234299,103.858378559681,103.858378559681,038987,TEMASEK BOULEVARD,SUNTEC TOWER ONE,30788.9561319612,30867.0920541566
8 TEMASEK BOULEVARD EMBASSY OF THE REPUBLIC OF CHILE SINGAPORE 038988,8,EMBASSY OF THE REPUBLIC OF CHILE,1.2950840351558799,103.859617505649,103.859617505649,038988,TEMASEK BOULEVARD,EMBASSY OF THE REPUBLIC OF CHILE,30926.8403578494,30829.3466374744
8 TEMASEK BOULEVARD EMBASSY OF THE STATE OF QATAR SINGAPORE 038988,8,EMBASSY OF THE STATE OF QATAR,1.2950840351558799,103.859617505649,103.859617505649,038988,TEMASEK BOULEVARD,EMBASSY OF THE STATE OF QATAR,30926.8403578494,30829.3466374744
8 TEMASEK BOULEVARD HIGH COMMISSION OF THE REPUBLIC OF RWANDA SINGAPORE 038988,8,HIGH COMMISSION OF THE REPUBLIC OF RWANDA,1.29512778965533,103.859545797162,103.859545797162,038988,TEMASEK BOULEVARD,HIGH COMMISSION OF THE REPUBLIC OF RWANDA,30918.8597801914,30834.184702258597
8 TEMASEK BOULEVARD SUNTEC TOWER THREE SINGAPORE 038988,8,SUNTEC TOWER THREE,1.29508590242783,103.85952529937201,103.85952529937201,038988,TEMASEK BOULEVARD,SUNTEC TOWER THREE,30916.578603330097,30829.5530045871
9 TEMASEK BOULEVARD SUNTEC TOWER TWO SINGAPORE 038989,9,SUNTEC TOWER TWO,1.2955948727431101,103.858968202276,103.858968202276,038989,TEMASEK BOULEVARD,SUNTEC TOWER TWO,30854.577998431403,30885.8316893075
3 TEMASEK AVENUE CENTENNIAL TOWER SINGAPORE 039190,3,CENTENNIAL TOWER,1.29350252893547,103.86026596958901,103.86026596958901,039190,TEMASEK AVENUE,CENTENNIAL TOWER,30999.010581526,30654.472574580497
3 TEMASEK AVENUE CONSULATE OF THE REPUBLIC OF LEBANON SINGAPORE 039190,3,CONSULATE OF THE REPUBLIC OF LEBANON,1.29350252893547,103.86026596958901,103.86026596958901,039190,TEMASEK AVENUE,CONSULATE OF THE REPUBLIC OF LEBANON,30999.010581526,30654.472574580497
3 TEMASEK AVENUE EMBASSY OF THE REPUBLIC OF ANGOLA SINGAPORE 039190,3,EMBASSY OF THE REPUBLIC OF ANGOLA,1.29359259248899,103.86027250844299,103.86027250844299,039190,TEMASEK AVENUE,EMBASSY OF THE REPUBLIC OF ANGOLA,30999.738193586498,30664.4313465822
3 TEMASEK AVENUE MAXWELL CHAMBERS@CENTENNIAL SINGAPORE 039190,3,MAXWELL CHAMBERS@CENTENNIAL,1.29346955508413,103.86036616951401,103.86036616951401,039190,TEMASEK AVENUE,MAXWELL CHAMBERS@CENTENNIAL,31010.1620028904,30650.826614333302
1 TEMASEK AVENUE CONSULATE OF THE CZECH REPUBLIC SINGAPORE 039192,1,CONSULATE OF THE CZECH REPUBLIC,1.2926708514281102,103.860299235072,103.860299235072,039192,TEMASEK AVENUE,CONSULATE OF THE CZECH REPUBLIC,31002.7137179933,30562.5099952798
1 TEMASEK AVENUE MILLENIA TOWER SINGAPORE 039192,1,MILLENIA TOWER,1.2926792689518,103.86030288827101,103.86030288827101,039192,TEMASEK AVENUE,MILLENIA TOWER,31003.120277551,30563.440766045802
1 TEMASEK AVENUE UOB MILLENIA WALK SINGAPORE 039192,1,UOB MILLENIA WALK,1.29267926922554,103.86030288854299,103.86030288854299,039192,TEMASEK AVENUE,UOB MILLENIA WALK,31003.120307818997,30563.4407963138
2 TEMASEK AVENUE DBS PROMENADE MRT STATION SINGAPORE 039193,2,DBS PROMENADE MRT STATION,1.29307389602149,103.86106723586501,103.86106723586501,039193,TEMASEK AVENUE,DBS PROMENADE MRT STATION,31088.1850860426,30607.0775128119
2 TEMASEK AVENUE OCBC PROMENADE MRT SINGAPORE 039193,2,OCBC PROMENADE MRT,1.2939985685923798,103.860350000467,103.860350000467,039193,TEMASEK AVENUE,OCBC PROMENADE MRT,31008.3619053634,30709.322186717796
2 TEMASEK AVENUE PROMENADE MRT STATION SINGAPORE 039193,2,PROMENADE MRT STATION (CC4),1.2939985691398401,103.86035000019501,103.86035000019501,039193,TEMASEK AVENUE,PROMENADE MRT STATION (CC4),31008.3618750954,30709.3222472537
2 TEMASEK AVENUE UOB PROMENADE MRT STATION SINGAPORE 039193,2,UOB PROMENADE MRT STATION,1.2939985685923798,103.860350000467,103.860350000467,039193,TEMASEK AVENUE,UOB PROMENADE MRT STATION,31008.3619053634,30709.322186717796
10 TEMASEK AVENUE PROMENADE MRT STATION SINGAPORE 039194,10,PROMENADE MRT STATION (DT15),1.29289175383296,103.860891800025,103.860891800025,039194,TEMASEK AVENUE,PROMENADE MRT STATION (DT15),31068.6608139491,30586.9369543027
2 RAFFLES LINK MARINA BAYFRONT SINGAPORE 039392,2,MARINA BAYFRONT,1.29125970873643,103.856242375217,103.856242375217,039392,RAFFLES LINK,MARINA BAYFRONT,30551.2216718225,30406.4686718546
1 RAFFLES LINK CITYLINK MALL SINGAPORE 039393,1,CITYLINK MALL,1.2923786067095901,103.85466296886801,103.85466296886801,039393,RAFFLES LINK,CITYLINK MALL,30375.4462586408,30530.189115833502
1 RAFFLES LINK DBS DBS RAFFLES LINK BRANCH SINGAPORE 039393,1,DBS DBS RAFFLES LINK BRANCH,1.29202916366272,103.855879205641,103.855879205641,039393,RAFFLES LINK,DBS DBS RAFFLES LINK BRANCH,30510.803259229302,30491.5506725591
1 RAFFLES LINK ONE RAFFLES LINK SINGAPORE 039393,1,ONE RAFFLES LINK,1.29198964778271,103.855855224014,103.855855224014,039393,RAFFLES LINK,ONE RAFFLES LINK,30508.134349497002,30487.1811864302
1 RAFFLES LINK UOB CITYLINK MALL SINGAPORE 039393,1,UOB CITYLINK MALL,1.2926034941333502,103.854316064564,103.854316064564,039393,RAFFLES LINK,UOB CITYLINK MALL,30336.8385979058,30555.0556870531
1 RAFFLES BOULEVARD SUNTEC CITY MALL SINGAPORE 039593,1,SUNTEC CITY MALL,1.29350132535559,103.85730749582399,103.85730749582399,039593,RAFFLES BOULEVARD,SUNTEC CITY MALL,30669.758118231803,30654.3361870442
1 RAFFLES BOULEVARD SUNTEC SINGAPORE CONVENTION & EXHIBITION CENTRE SINGAPORE 039593,1,SUNTEC SINGAPORE CONVENTION & EXHIBITION CENTRE,1.2936221622883302,103.857252816966,103.857252816966,039593,RAFFLES BOULEVARD,SUNTEC SINGAPORE CONVENTION & EXHIBITION CENTRE,30663.672709837596,30667.697655508302
6 RAFFLES BOULEVARD DBS MARINA SQUARE SINGAPORE 039594,6,DBS MARINA SQUARE,1.29098168416986,103.85764759167499,103.85764759167499,039594,RAFFLES BOULEVARD,DBS MARINA SQUARE,30707.6105019692,30375.7275995519
6 RAFFLES BOULEVARD MARINA MANDARIN SINGAPORE 039594,6,MARINA MANDARIN,1.29145526145624,103.857007330784,103.857007330784,039594,RAFFLES BOULEVARD,MARINA MANDARIN,30636.3544622054,30428.092664245498
6 RAFFLES BOULEVARD MARINA SQUARE SINGAPORE 039594,6,MARINA SQUARE,1.29103980256765,103.85762353235901,103.85762353235901,039594,RAFFLES BOULEVARD,MARINA SQUARE,30704.932844789702,30382.154007049303
6 RAFFLES BOULEVARD MINDCHAMPS PRESCHOOL @ MARINA SQUARE PTE. LTD. SINGAPORE 039594,6,MINDCHAMPS PRESCHOOL @ MARINA SQUARE PTE. LTD.,1.29145526802577,103.85700733568001,103.85700733568001,039594,RAFFLES BOULEVARD,MINDCHAMPS PRESCHOOL @ MARINA SQUARE PTE. LTD.,30636.355007029102,30428.0933906771
6 RAFFLES BOULEVARD OCBC MARINA SQUARE SINGAPORE 039594,6,OCBC MARINA SQUARE,1.2915948049433401,103.85704871565599,103.85704871565599,039594,RAFFLES BOULEVARD,OCBC MARINA SQUARE,30640.9600991439,30443.522707251803
6 RAFFLES BOULEVARD UOB MARINA SQUARE SINGAPORE 039594,6,UOB MARINA SQUARE,1.29097199909543,103.857575411708,103.857575411708,039594,RAFFLES BOULEVARD,UOB MARINA SQUARE,30699.5775001626,30374.656597215697
6 RAFFLES BOULEVARD UOB MARINA SQUARE AUTOLOBBY SINGAPORE 039594,6,UOB MARINA SQUARE AUTOLOBBY,1.29097199909543,103.857575411708,103.857575411708,039594,RAFFLES BOULEVARD,UOB MARINA SQUARE AUTOLOBBY,30699.5775001626,30374.656597215697
7 RAFFLES BOULEVARD THE PAN PACIFIC HOTEL SINGAPORE SINGAPORE 039595,7,THE PAN PACIFIC HOTEL SINGAPORE,1.29241443325541,103.858814384016,103.858814384016,039595,RAFFLES BOULEVARD,THE PAN PACIFIC HOTEL SINGAPORE,30837.4629065022,30534.154887596098
9 RAFFLES BOULEVARD CITIBANK MILLENIA WALK SINGAPORE 039596,9,CITIBANK MILLENIA WALK,1.29296504146628,103.859343968909,103.859343968909,039596,RAFFLES BOULEVARD,CITIBANK MILLENIA WALK,30896.400512521202,30595.038906576097
9 RAFFLES BOULEVARD DBS MILLENIA WALK SINGAPORE 039596,9,DBS MILLENIA WALK,1.29296504146628,103.859343968909,103.859343968909,039596,RAFFLES BOULEVARD,DBS MILLENIA WALK,30896.400512521202,30595.038906576097
9 RAFFLES BOULEVARD MILLENIA WALK SINGAPORE 039596,9,MILLENIA WALK,1.2920460530205,103.85990023349899,103.85990023349899,039596,RAFFLES BOULEVARD,MILLENIA WALK,30958.309011945497,30493.422535477202
"9 RAFFLES BOULEVARD ROY LICHTENSTEIN SCULPTURE PLAZA,THE (MILLENIA WALK) SINGAPORE 039596",9,"ROY LICHTENSTEIN SCULPTURE PLAZA,THE (MILLENIA WALK)",1.29207995436308,103.859972413485,103.859972413485,039596,RAFFLES BOULEVARD,"ROY LICHTENSTEIN SCULPTURE PLAZA,THE (MILLENIA WALK)",30966.3419834841,30497.1712555289
"5 RAFFLES AVENUE MANDARIN ORIENTAL, SINGAPORE SINGAPORE 039797",5,"MANDARIN ORIENTAL, SINGAPORE",1.29066059179027,103.858323976383,103.858323976383,039797,RAFFLES AVENUE,"MANDARIN ORIENTAL, SINGAPORE",30782.8866747944,30340.223587598703
"7 RAFFLES AVENUE THE RITZ-CARLTON, MILLENIA SINGAPORE SINGAPORE 039799",7,"THE RITZ-CARLTON, MILLENIA SINGAPORE",1.29071831101811,103.860047263796,103.860047263796,039799,RAFFLES AVENUE,"THE RITZ-CARLTON, MILLENIA SINGAPORE",30974.6737605575,30346.607831796602
5A RAFFLES AVENUE MARINA LEISUREPLEX SINGAPORE 039801,5A,MARINA LEISUREPLEX,1.29024991373292,103.85903558780198,103.85903558780198,039801,RAFFLES AVENUE,MARINA LEISUREPLEX,30862.083399013598,30294.8137120791
8 RAFFLES AVENUE DBS ESPLANADE MALL SINGAPORE 039802,8,DBS ESPLANADE MALL,1.28935082986746,103.855901267402,103.855901267402,039802,RAFFLES AVENUE,DBS ESPLANADE MALL,30513.2611708473,30195.3943425771
8 RAFFLES AVENUE ESPLANADE MALL SINGAPORE 039802,8,ESPLANADE MALL,1.28950956232932,103.855665761542,103.855665761542,039802,RAFFLES AVENUE,ESPLANADE MALL,30487.0512157073,30212.9459290989
8 RAFFLES AVENUE LIBRARY@ESPLANADE SINGAPORE 039802,8,LIBRARY@ESPLANADE,1.28966932376703,103.85595270768499,103.85595270768499,039802,RAFFLES AVENUE,LIBRARY@ESPLANADE,30518.9857243402,30230.6118075289
30 RAFFLES AVENUE DBS SINGAPORE FLYER SINGAPORE 039803,30,DBS SINGAPORE FLYER,1.28967817604307,103.863412595795,103.863412595795,039803,RAFFLES AVENUE,DBS SINGAPORE FLYER,31349.2077933885,30231.5992399603
30 RAFFLES AVENUE SINGAPORE FLYER SINGAPORE 039803,30,SINGAPORE FLYER,1.28971341772821,103.863372152589,103.863372152589,039803,RAFFLES AVENUE,SINGAPORE FLYER,31344.706762601603,30235.496030988197
30 RAFFLES AVENUE SINGAPORE FLYER (MSCP) SINGAPORE 039803,30,SINGAPORE FLYER (MSCP),1.29034626598228,103.862406945245,103.862406945245,039803,RAFFLES AVENUE,SINGAPORE FLYER (MSCP),31237.2865964286,30305.4718863815
20 RAFFLES AVENUE THE FLOAT @ MARINA BAY SINGAPORE 039805,20,THE FLOAT @ MARINA BAY,1.28827403820691,103.858974713843,103.858974713843,039805,RAFFLES AVENUE,THE FLOAT @ MARINA BAY,30855.3108468531,30076.3315056637
35A RAFFLES AVENUE SINGAPORE 039807,35A,NIL,1.29096518542722,103.86205851405501,103.86205851405501,039807,RAFFLES AVENUE,35A RAFFLES AVENUE SINGAPORE 039807,31198.5084058736,30373.908372657403
7 CROSS STREET TELOK AYER MRT STATION SINGAPORE 048416,7,TELOK AYER MRT STATION (DT18),1.28206894769396,103.84864878108299,103.84864878108299,048416,CROSS STREET,TELOK AYER MRT STATION (DT18),29706.1259155748,29390.195390759
10 CROSS STREET SINGAPORE 048417,10,NIL,1.28265449617756,103.84820686523099,103.84820686523099,048417,CROSS STREET,10 CROSS STREET SINGAPORE 048417,29656.9439228531,29454.9420282133
5 CROSS STREET MARKET STREET INTERIM HAWKER CENTRE SINGAPORE 048418,5,MARKET STREET INTERIM HAWKER CENTRE,1.28164602016,103.848766346361,103.848766346361,048418,CROSS STREET,MARKET STREET INTERIM HAWKER CENTRE,29719.2102503804,29343.4303268045
22 CROSS STREET CHINA SQUARE CENTRAL SINGAPORE 048421,22,CHINA SQUARE CENTRAL,1.28415741076465,103.84670268393299,103.84670268393299,048421,CROSS STREET,CHINA SQUARE CENTRAL,29489.540028608397,29621.125638427202
20 CROSS STREET CHINA SQUARE CENTRAL SINGAPORE 048422,20,CHINA SQUARE CENTRAL,1.28377015953589,103.847418081421,103.847418081421,048422,CROSS STREET,CHINA SQUARE CENTRAL,29569.1580831613,29578.3058245406
18 CROSS STREET CHINA SQUARE CENTRAL SINGAPORE 048423,18,CHINA SQUARE CENTRAL,1.28351521684053,103.846878905539,103.846878905539,048423,CROSS STREET,CHINA SQUARE CENTRAL,29509.1524108015,29550.115253617998
18 CROSS STREET PETRA CHURCH SINGAPORE 048423,18,PETRA CHURCH,1.2835043049059198,103.846900516194,103.846900516194,048423,CROSS STREET,PETRA CHURCH,29511.557504787997,29548.9086809829
8 CROSS STREET MANULIFE TOWER SINGAPORE 048424,8,MANULIFE TOWER,1.28245765117378,103.84898743176001,103.84898743176001,048424,CROSS STREET,MANULIFE TOWER,29743.814700860497,29433.1764421947
51 TELOK AYER STREET CHINA SQUARE FOOD CENTRE SINGAPORE 048441,51,CHINA SQUARE FOOD CENTRE,1.28289702779316,103.849281764587,103.849281764587,048441,TELOK AYER STREET,CHINA SQUARE FOOD CENTRE,29776.571227395,29481.760642237998
74 TELOK AYER STREET AMOY HOTEL SINGAPORE 048462,74,AMOY HOTEL,1.28317011450095,103.84875355714199,103.84875355714199,048462,TELOK AYER STREET,AMOY HOTEL,29717.785899602797,29511.956800030497
76 TELOK AYER STREET AMOY HOTEL SINGAPORE 048464,76,AMOY HOTEL,1.28300039630386,103.848645396791,103.848645396791,048464,TELOK AYER STREET,AMOY HOTEL,29705.748655426298,29493.190165838198
76 TELOK AYER STREET FUK TAK CHI MUSEUM SINGAPORE 048464,76,FUK TAK CHI MUSEUM,1.28292172352505,103.84873491676001,103.84873491676001,048464,TELOK AYER STREET,FUK TAK CHI MUSEUM,29715.7115438748,29484.4909959771
80 TELOK AYER STREET FAR EAST SQUARE SINGAPORE 048466,80,FAR EAST SQUARE,1.28271456105964,103.848590125427,103.848590125427,048466,TELOK AYER STREET,FAR EAST SQUARE,29699.597595775496,29461.583943756297
82 TELOK AYER STREET FAR EAST SQUARE SINGAPORE 048467,82,FAR EAST SQUARE,1.2827145607859098,103.848590125427,103.848590125427,048467,TELOK AYER STREET,FAR EAST SQUARE,29699.597595775496,29461.5839134883
84 TELOK AYER STREET FAR EAST SQUARE SINGAPORE 048468,84,FAR EAST SQUARE,1.2827145607859098,103.848590125427,103.848590125427,048468,TELOK AYER STREET,FAR EAST SQUARE,29699.597595775496,29461.5839134883
86 TELOK AYER STREET FAR EAST SQUARE SINGAPORE 048469,86,FAR EAST SQUARE,1.2827145607859098,103.848590125427,103.848590125427,048469,TELOK AYER STREET,FAR EAST SQUARE,29699.597595775496,29461.5839134883
88 TELOK AYER STREET FAR EAST SQUARE SINGAPORE 048470,88,FAR EAST SQUARE,1.2827145607859098,103.848590125427,103.848590125427,048470,TELOK AYER STREET,FAR EAST SQUARE,29699.597595775496,29461.5839134883
90 TELOK AYER STREET FAR EAST SQUARE SINGAPORE 048471,90,FAR EAST SQUARE,1.2827145607859098,103.848590125427,103.848590125427,048471,TELOK AYER STREET,FAR EAST SQUARE,29699.597595775496,29461.5839134883
92 TELOK AYER STREET FAR EAST SQUARE SINGAPORE 048472,92,FAR EAST SQUARE,1.2827145607859098,103.848590125427,103.848590125427,048472,TELOK AYER STREET,FAR EAST SQUARE,29699.597595775496,29461.5839134883
94 TELOK AYER STREET FAR EAST SQUARE SINGAPORE 048473,94,FAR EAST SQUARE,1.2827145607859098,103.848590125427,103.848590125427,048473,TELOK AYER STREET,FAR EAST SQUARE,29699.597595775496,29461.5839134883
98 TELOK AYER STREET YING FO FUI KUN SINGAPORE 048474,98,YING FO FUI KUN,1.28253053881944,103.848409397824,103.848409397824,048474,TELOK AYER STREET,YING FO FUI KUN,29679.4842179148,29441.235595539198
1 SOUTH CANAL ROAD SINGAPORE 048508,1,NIL,1.28578886408588,103.84983630609399,103.84983630609399,048508,SOUTH CANAL ROAD,1 SOUTH CANAL ROAD SINGAPORE 048508,29838.2850734163,29801.5253638923
1 ROBINSON ROAD AIA TOWER SINGAPORE 048542,1,AIA TOWER,1.28198667866149,103.85112248247299,103.85112248247299,048542,ROBINSON ROAD,AIA TOWER,29981.4286944233,29381.100285405297
4 ROBINSON ROAD THE HOUSE OF EDEN SINGAPORE 048543,4,THE HOUSE OF EDEN,1.28235484318145,103.850938893316,103.850938893316,048543,ROBINSON ROAD,THE HOUSE OF EDEN,29960.9964433555,29421.809876000498
8 ROBINSON ROAD ASO BUILDING SINGAPORE 048544,8,ASO BUILDING,1.2822719592691398,103.850822525949,103.850822525949,048544,ROBINSON ROAD,ASO BUILDING,29948.0457719658,29412.6449121386
14 ROBINSON ROAD FAR EAST FINANCE BUILDING SINGAPORE 048545,14,FAR EAST FINANCE BUILDING,1.28211736176233,103.85077422854799,103.85077422854799,048545,ROBINSON ROAD,FAR EAST FINANCE BUILDING,29942.6707834173,29395.5502813663
14 ROBINSON ROAD ROSEMARY HALL MONTESSORI ROBINSON CHILDCARE CENTRE SINGAPORE 048545,14,ROSEMARY HALL MONTESSORI ROBINSON CHILDCARE CENTRE,1.28214167321935,103.850754841091,103.850754841091,048545,ROBINSON ROAD,ROSEMARY HALL MONTESSORI ROBINSON CHILDCARE CENTRE,29940.513099930202,29398.238502072203
18 ROBINSON ROAD 18 ROBINSON SINGAPORE 048547,18,18 ROBINSON,1.28181879714492,103.85055997656,103.85055997656,048547,ROBINSON ROAD,18 ROBINSON,29918.8265133481,29362.536386167598
6 RAFFLES QUAY SINGAPORE 048580,6,NIL,1.2818123165501,103.851384344667,103.851384344667,048580,RAFFLES QUAY,6 RAFFLES QUAY SINGAPORE 048580,30010.5719501339,29361.8204272799
16 RAFFLES QUAY EMBASSY OF THE REPUBLIC OF PANAMA SINGAPORE 048581,16,EMBASSY OF THE REPUBLIC OF PANAMA,1.28136301224218,103.850919074926,103.850919074926,048581,RAFFLES QUAY,EMBASSY OF THE REPUBLIC OF PANAMA,29958.7915720809,29312.138316662997
16 RAFFLES QUAY HONG LEONG BUILDING SINGAPORE 048581,16,HONG LEONG BUILDING,1.28136301224218,103.850919074926,103.850919074926,048581,RAFFLES QUAY,HONG LEONG BUILDING,29958.7915720809,29312.138316662997
16 RAFFLES QUAY ROYAL NORWEGIAN EMBASSY SINGAPORE 048581,16,ROYAL NORWEGIAN EMBASSY,1.28136301224218,103.850919074926,103.850919074926,048581,RAFFLES QUAY,ROYAL NORWEGIAN EMBASSY,29958.7915720809,29312.138316662997
18 RAFFLES QUAY FORMER TELOK AYER MARKET (LAU PA SAT) SINGAPORE 048582,18,FORMER TELOK AYER MARKET (LAU PA SAT),1.2806538681464499,103.85041271856701,103.85041271856701,048582,RAFFLES QUAY,FORMER TELOK AYER MARKET (LAU PA SAT),29902.4387610685,29233.7244435735